ONEWEB-0303             
1 49187U 21083B   23059.46141945  .00000020  00000+0  19126-4 0  9990
2 49187  87.9231 214.8331 0001878  94.6815 265.4532 13.18683542 71208
ONEWEB-0303             
1 49187U 21083B   23059.91667865  .00000051  00000+0  96905-4 0  9998
2 49187  87.9231 214.7430 0001873  94.7673 265.3673 13.18684354 72540
ONEWEB-0303             
1 49187U 21083B   23060.90307518  .00000053  00000+0  10060-3 0  9994
2 49187  87.9228 214.5473 0001901  94.6175 265.5174 13.18684047 71398
ONEWEB-0303             
1 49187U 21083B   23061.13070443  .00000122  00000+0  27579-3 0  9994
2 49187  87.9230 214.5023 0001896  94.5257 265.6092 13.18684579 72701
ONEWEB-0303             
1 49187U 21083B   23061.81359612 -.00000202  00000+0 -54533-3 0  9998
2 49187  87.9235 214.3671 0001877  94.4361 265.6986 13.18683028 71515
ONEWEB-0303             
1 49187U 21083B   23062.42060692  .00000066  00000+0  13342-3 0  9992
2 49187  87.9236 214.2471 0001876  94.1443 265.9903 13.18684455 71595
ONEWEB-0303             
1 49187U 21083B   23062.42060692  .00000066  00000+0  13342-3 0  9992
2 49187  87.9236 214.2471 0001876  94.1443 265.9903 13.18684455 72877
ONEWEB-0303             
1 49187U 21083B   23062.87586707 -.00000037  00000+0 -12690-3 0  9996
2 49187  87.9238 214.1570 0001875  94.1523 265.9823 13.18684099 71656
